[
    {
        "Altitude(m)": 569029.287955602,
        "Argument of Periapsis(deg)": 0.026491964442854003,
        "Eccentricity": 0.0,
        "Inclination(deg)": 53.0,
        "Latitude(deg)": -46.07357732367067,
        "Longitude(deg)": 112.89963522941207,
        "Mean Anomaly(deg)": -115.99722852968968,
        "RAAN(deg)": 344.9605734741121,
        "Satellite Name": "Starlink Shell 1 1530",
        "Satellite Number": 1530,
        "Semi-Major Axis(m)": 6931778.249405717,
        "Time(s)": 760
    },
    {
        "Altitude(m)": 569156.3384071287,
        "Argument of Periapsis(deg)": 0.02684054292236524,
        "Eccentricity": 0.0,
        "Inclination(deg)": 53.0,
        "Latitude(deg)": -46.38489083649665,
        "Longitude(deg)": 113.64009640710434,
        "Mean Anomaly(deg)": -115.37039732613293,
        "RAAN(deg)": 344.9600547040346,
        "Satellite Name": "Starlink Shell 1 1530",
        "Satellite Number": 1530,
        "Semi-Major Axis(m)": 6931778.249405717,
        "Time(s)": 770
    },
    {
        "Altitude(m)": 569280.9766602614,
        "Argument of Periapsis(deg)": 0.027189121401876473,
        "Eccentricity": 0.0,
        "Inclination(deg)": 53.0,
        "Latitude(deg)": -46.69077949967367,
        "Longitude(deg)": 114.38939662375684,
        "Mean Anomaly(deg)": -114.74356612257628,
        "RAAN(deg)": 344.95953593395717,
        "Satellite Name": "Starlink Shell 1 1530",
        "Satellite Number": 1530,
        "Semi-Major Axis(m)": 6931778.249405717,
        "Time(s)": 780
    },
    {
        "Altitude(m)": 569403.1534349042,
        "Argument of Periapsis(deg)": 0.02753769988138771,
        "Eccentricity": 0.0,
        "Inclination(deg)": 53.0,
        "Latitude(deg)": -46.99112510501791,
        "Longitude(deg)": 115.14757191331748,
        "Mean Anomaly(deg)": -114.11673491901958,
        "RAAN(deg)": 344.95901716387965,
        "Satellite Name": "Starlink Shell 1 1530",
        "Satellite Number": 1530,
        "Semi-Major Axis(m)": 6931778.249405717,
        "Time(s)": 790
    },
    {
        "Altitude(m)": 569522.8203968263,
        "Argument of Periapsis(deg)": 0.02788627836089895,
        "Eccentricity": 0.0,
        "Inclination(deg)": 53.0,
        "Latitude(deg)": -47.28580834883864,
        "Longitude(deg)": 115.9146490415894,
        "Mean Anomaly(deg)": -113.48990371546273,
        "RAAN(deg)": 344.9584983938022,
        "Satellite Name": "Starlink Shell 1 1530",
        "Satellite Number": 1530,
        "Semi-Major Axis(m)": 6931778.249405717,
        "Time(s)": 800
    },
    {
        "Altitude(m)": 569639.9301788228,
        "Argument of Periapsis(deg)": 0.02823485684041019,
        "Eccentricity": 0.0,
        "Inclination(deg)": 53.0,
        "Latitude(deg)": -47.57470894771647,
        "Longitude(deg)": 116.69064546790946,
        "Mean Anomaly(deg)": -112.8630725119061,
        "RAAN(deg)": 344.9579796237247,
        "Satellite Name": "Starlink Shell 1 1530",
        "Satellite Number": 1530,
        "Semi-Major Axis(m)": 6931778.249405717,
        "Time(s)": 810
    },
    {
        "Altitude(m)": 569754.4364014509,
        "Argument of Periapsis(deg)": 0.028583435319921423,
        "Eccentricity": 0.0,
        "Inclination(deg)": 53.0,
        "Latitude(deg)": -47.85770576464031,
        "Longitude(deg)": 117.47556930236402,
        "Mean Anomaly(deg)": -112.23624130834945,
        "RAAN(deg)": 344.95746085364726,
        "Satellite Name": "Starlink Shell 1 1530",
        "Satellite Number": 1530,
        "Semi-Major Axis(m)": 6931778.249405717,
        "Time(s)": 820
    },
    {
        "Altitude(m)": 569866.2936933115,
        "Argument of Periapsis(deg)": 0.028932013799432665,
        "Eccentricity": 0.0,
        "Inclination(deg)": 53.0,
        "Latitude(deg)": -48.134676945739756,
        "Longitude(deg)": 118.26941774840161,
        "Mean Anomaly(deg)": -111.60941010479264,
        "RAAN(deg)": 344.95694208356974,
        "Satellite Name": "Starlink Shell 1 1530",
        "Satellite Number": 1530,
        "Semi-Major Axis(m)": 6931778.249405717,
        "Time(s)": 830
    },
    {
        "Altitude(m)": 569975.4577109028,
        "Argument of Periapsis(deg)": 0.029280592278943897,
        "Eccentricity": 0.0,
        "Inclination(deg)": 53.0,
        "Latitude(deg)": -48.40550006780804,
        "Longitude(deg)": 119.07217705960593,
        "Mean Anomaly(deg)": -110.9825789012359,
        "RAAN(deg)": 344.9564233134923,
        "Satellite Name": "Starlink Shell 1 1530",
        "Satellite Number": 1530,
        "Semi-Major Axis(m)": 6931778.249405717,
        "Time(s)": 840
    },
    {
        "Altitude(m)": 570081.885157967,
        "Argument of Periapsis(deg)": 0.029629170758455132,
        "Eccentricity": 0.0,
        "Inclination(deg)": 53.0,
        "Latitude(deg)": -48.670052296749965,
        "Longitude(deg)": 119.88382250106817,
        "Mean Anomaly(deg)": -110.35574769767925,
        "RAAN(deg)": 344.9559045434148,
        "Satellite Name": "Starlink Shell 1 1530",
        "Satellite Number": 1530,
        "Semi-Major Axis(m)": 6931778.249405717,
        "Time(s)": 850
    },
    {
        "Altitude(m)": 570185.5338044156,
        "Argument of Periapsis(deg)": 0.02997774923796637,
        "Eccentricity": 0.0,
        "Inclination(deg)": 53.0,
        "Latitude(deg)": -48.92821055702727,
        "Longitude(deg)": 120.7043166379852,
        "Mean Anomaly(deg)": -109.72891649412256,
        "RAAN(deg)": 344.9553857733373,
        "Satellite Name": "Starlink Shell 1 1530",
        "Satellite Number": 1530,
        "Semi-Major Axis(m)": 6931778.249405717,
        "Time(s)": 860
    },
    {
        "Altitude(m)": 570286.3625047595,
        "Argument of Periapsis(deg)": 0.030326327717477602,
        "Eccentricity": 0.0,
        "Inclination(deg)": 53.0,
        "Latitude(deg)": -49.17985171210721,
        "Longitude(deg)": 121.5336101577705,
        "Mean Anomaly(deg)": -109.10208529056577,
        "RAAN(deg)": 344.9548670032599,
        "Satellite Name": "Starlink Shell 1 1530",
        "Satellite Number": 1530,
        "Semi-Major Axis(m)": 6931778.249405717,
        "Time(s)": 870
    },
    {
        "Altitude(m)": 570384.3312160433,
        "Argument of Periapsis(deg)": 0.030674906196988847,
        "Eccentricity": 0.0,
        "Inclination(deg)": 53.0,
        "Latitude(deg)": -49.42485275583754,
        "Longitude(deg)": 122.37164018690791,
        "Mean Anomaly(deg)": -108.47525408700906,
        "RAAN(deg)": 344.95434823318243,
        "Satellite Name": "Starlink Shell 1 1530",
        "Satellite Number": 1530,
        "Semi-Major Axis(m)": 6931778.249405717,
        "Time(s)": 880
    },
    {
        "Altitude(m)": 570479.401015324,
        "Argument of Periapsis(deg)": 0.031023484676500086,
        "Eccentricity": 0.0,
        "Inclination(deg)": 53.0,
        "Latitude(deg)": -49.663091014593874,
        "Longitude(deg)": 123.21833030934664,
        "Mean Anomaly(deg)": -107.84842288345237,
        "RAAN(deg)": 344.9538294631049,
        "Satellite Name": "Starlink Shell 1 1530",
        "Satellite Number": 1530,
        "Semi-Major Axis(m)": 6931778.249405717,
        "Time(s)": 890
    },
    {
        "Altitude(m)": 570571.534116619,
        "Argument of Periapsis(deg)": 0.03137206315601132,
        "Eccentricity": 0.0,
        "Inclination(deg)": 53.0,
        "Latitude(deg)": -49.894444359948686,
        "Longitude(deg)": 124.0735906100583,
        "Mean Anomaly(deg)": -107.22159167989568,
        "RAAN(deg)": 344.9533106930275,
        "Satellite Name": "Starlink Shell 1 1530",
        "Satellite Number": 1530,
        "Semi-Major Axis(m)": 6931778.249405717,
        "Time(s)": 900
    },
    {
        "Altitude(m)": 570660.6938873668,
        "Argument of Periapsis(deg)": 0.03172064163552255,
        "Eccentricity": 0.0,
        "Inclination(deg)": 53.0,
        "Latitude(deg)": -50.1187914315159,
        "Longitude(deg)": 124.93731623567182,
        "Mean Anomaly(deg)": -106.59476047633888,
        "RAAN(deg)": 344.95279192295,
        "Satellite Name": "Starlink Shell 1 1530",
        "Satellite Number": 1530,
        "Semi-Major Axis(m)": 6931778.249405717,
        "Time(s)": 910
    },
    {
        "Altitude(m)": 570746.8448643761,
        "Argument of Periapsis(deg)": 0.0320692201150338,
        "Eccentricity": 0.0,
        "Inclination(deg)": 53.0,
        "Latitude(deg)": -50.33601186952535,
        "Longitude(deg)": 125.8093875028583,
        "Mean Anomaly(deg)": -105.96792927278223,
        "RAAN(deg)": 344.9522731528725,
        "Satellite Name": "Starlink Shell 1 1530",
        "Satellite Number": 1530,
        "Semi-Major Axis(m)": 6931778.249405717,
        "Time(s)": 920
    },
    {
        "Altitude(m)": 570829.952769257,
        "Argument of Periapsis(deg)": 0.032417798594545036,
        "Eccentricity": 0.0,
        "Inclination(deg)": 53.0,
        "Latitude(deg)": -50.54598655656985,
        "Longitude(deg)": 126.68967004663321,
        "Mean Anomaly(deg)": -105.34109806922558,
        "RAAN(deg)": 344.95175438279506,
        "Satellite Name": "Starlink Shell 1 1530",
        "Satellite Number": 1530,
        "Semi-Major Axis(m)": 6931778.249405717,
        "Time(s)": 930
    },
    {
        "Altitude(m)": 570909.9845233386,
        "Argument of Periapsis(deg)": 0.03276637707405627,
        "Eccentricity": 0.0,
        "Inclination(deg)": 53.0,
        "Latitude(deg)": -50.74859786785641,
        "Longitude(deg)": 127.57801350079669,
        "Mean Anomaly(deg)": -104.71426686566879,
        "RAAN(deg)": 344.95123561271754,
        "Satellite Name": "Starlink Shell 1 1530",
        "Satellite Number": 1530,
        "Semi-Major Axis(m)": 6931778.249405717,
        "Time(s)": 940
    }
]